0 IRIDIUM 33 DEB
1 36497U 97051WP  13281.17918201  .00001015  00000-0  37530-3 0  2244
2 36497 086.1544 091.0910 0078772 313.7294 045.7399 14.29785680221472
0 IRIDIUM 33 DEB
1 36497U 97051WP  13283.20871605  .00001032  00000-0  38183-3 0  2251
2 36497 086.1541 090.1923 0078948 307.4242 051.9770 14.29790049221760
0 IRIDIUM 33 DEB
1 36497U 97051WP  13285.16826220  .00001060  00000-0  39251-3 0  2260
2 36497 086.1552 089.3237 0078369 300.1529 059.2254 14.29794824222040
0 IRIDIUM 33 DEB
1 36497U 97051WP  13287.19778061  .00001113  00000-0  41266-3 0  2273
2 36497 086.1606 088.4218 0077209 292.1105 067.2409 14.29800456222333
0 IRIDIUM 33 DEB
1 36497U 97051WP  13290.13706637  .00001265  00000-0  46968-3 0  2284
2 36497 086.1542 087.1256 0077954 284.0811 075.1686 14.29810177222753
0 IRIDIUM 33 DEB
1 36497U 97051WP  13292.16657360  .00001392  00000-0  51757-3 0  2291
2 36497 086.1519 086.2258 0077612 277.7516 081.5133 14.29817877223046
0 IRIDIUM 33 DEB
1 36497U 97051WP  13293.14632721  .00001447  00000-0  53856-3 0  2309
2 36497 086.1540 085.7926 0077206 273.9803 085.2867 14.29821922223188
0 IRIDIUM 33 DEB
1 36497U 97051WP  13295.17581556  .00001589  00000-0  59177-3 0  2313
2 36497 086.1493 084.8952 0077666 268.2516 091.0143 14.29830686223473
